[{"OBJECT_NAME":"STARLINK-32680","OBJECT_ID":"2024-249Q","EPOCH":"2026-03-09T01:09:56.856672","MEAN_MOTION":15.27568104,"ECCENTRICITY":0.00021552,"INCLINATION":42.999,"RA_OF_ASC_NODE":317.8607,"ARG_OF_PERICENTER":286.6468,"MEAN_ANOMALY":73.4147,"EPHEMERIS_TYPE":0,"CLASSIFICATION_TYPE":"U","NORAD_CAT_ID":62423,"ELEMENT_SET_NO":999,"REV_AT_EPOCH":6771,"BSTAR":0.0014731017,"MEAN_MOTION_DOT":0.00040484,"MEAN_MOTION_DDOT":0},{"OBJECT_NAME":"CZ-6A DEB","OBJECT_ID":"2023-168D","EPOCH":"2026-03-09T19:03:52.964928","MEAN_MOTION":15.28240044,"ECCENTRICITY":0.00013417,"INCLINATION":97.7802,"RA_OF_ASC_NODE":98.3362,"ARG_OF_PERICENTER":174.0661,"MEAN_ANOMALY":186.0594,"EPHEMERIS_TYPE":0,"CLASSIFICATION_TYPE":"U","NORAD_CAT_ID":58202,"ELEMENT_SET_NO":999,"REV_AT_EPOCH":12922,"BSTAR":0.0014474773,"MEAN_MOTION_DOT":0.00039923,"MEAN_MOTION_DDOT":0}]
